City,City URL,Location ID,Store URL,Address,CityTown,Name,PostalCode,StateProvince,Residential,Latitude,Longitude,PhoneNumber
aberdeen,https://www.harristeeter.com/seo-store-files/link-hub/store-details-cities/aberdeen-nc-grocery.json,09700029,https://www.harristeeter.com/stores/grocery/nc/aberdeen/09700029,11109 US 15 501 Hwy Ste B 1804,Aberdeen,Center Park,28315,NC,False,35.1564511,-79.4167212,(910) 692-7029
albemarle,https://www.harristeeter.com/seo-store-files/link-hub/store-details-cities/albemarle-nc-grocery.json,09700078,https://www.harristeeter.com/stores/grocery/nc/albemarle/09700078,817 N 1st St,Albemarle,First Street Station,28001,NC,False,35.3619629,-80.1999484,(704) 983-6986
apex,https://www.harristeeter.com/seo-store-files/link-hub/store-details-cities/apex-nc-grocery.json,09700058,https://www.harristeeter.com/stores/grocery/nc/apex/09700058,750 W Williams St,Apex,Haddon Hall Commons,27539,NC,False,35.7376806,-78.8625298,(919) 362-3782
apex,https://www.harristeeter.com/seo-store-files/link-hub/store-details-cities/apex-nc-grocery.json,09700496,https://www.harristeeter.com/stores/grocery/nc/apex/09700496,940 US 64 Hwy W,Apex,Lake Pine Plaza,27523,NC,False,35.74561,-78.82196,(919) 380-1422
apex,https://www.harristeeter.com/seo-store-files/link-hub/store-details-cities/apex-nc-grocery.json,09700335,https://www.harristeeter.com/stores/grocery/nc/apex/09700335,2810 Teachey Place,Apex,Sweetwater Town Center,27523,NC,False,35.7486337,-78.870164,(984) 319-1915
asheville,https://www.harristeeter.com/seo-store-files/link-hub/store-details-cities/asheville-nc-grocery.json,09700348,https://www.harristeeter.com/stores/grocery/nc/asheville/09700348,136 Merrimon Ave,Asheville,Village at Chestnut Street,28801,NC,False,35.6042089,-82.5539601,(828) 255-1817
boone,https://www.harristeeter.com/seo-store-files/link-hub/store-details-cities/boone-nc-grocery.json,09700165,https://www.harristeeter.com/stores/grocery/nc/boone/09700165,240 Shadowline Dr,BOONE,Shops at Shadowline,28607,NC,False,36.202342,-81.6593524,(828) 262-3319
burlington,https://www.harristeeter.com/seo-store-files/link-hub/store-details-cities/burlington-nc-grocery.json,09700345,https://www.harristeeter.com/stores/grocery/nc/burlington/09700345,2727 S Church St,BURLINGTON,New Market Square,27215,NC,False,36.0822928,-79.4835884,(336) 585-1444
belmont,https://www.harristeeter.com/seo-store-files/link-hub/store-details-cities/belmont-nc-grocery.json,09700386,https://www.harristeeter.com/stores/grocery/nc/belmont/09700386,905 South Point Rd,Belmont,Belmont Town Center,28012,NC,False,35.2356044,-81.0361823,(704) 825-6079
cary,https://www.harristeeter.com/seo-store-files/link-hub/store-details-cities/cary-nc-grocery.json,09700298,https://www.harristeeter.com/stores/grocery/nc/cary/09700298,10140 Green Level Church Rd,Cary,Cary Park Town Center,27519,NC,False,35.8211179,-78.900703,(919) 460-3126
cary,https://www.harristeeter.com/seo-store-files/link-hub/store-details-cities/cary-nc-grocery.json,09700430,https://www.harristeeter.com/stores/grocery/nc/cary/09700430,885 Walnut St,Cary,Cary Village Square,27511,NC,False,35.7752649,-78.7647293,(919) 481-4251
cary,https://www.harristeeter.com/seo-store-files/link-hub/store-details-cities/cary-nc-grocery.json,09700257,https://www.harristeeter.com/stores/grocery/nc/cary/09700257,2080 Kildaire Farm Rd,Cary,Crescent Commons,27511,NC,False,35.735267,-78.780582,(919) 233-9483
cary,https://www.harristeeter.com/seo-store-files/link-hub/store-details-cities/cary-nc-grocery.json,09700112,https://www.harristeeter.com/stores/grocery/nc/cary/09700112,270 Grande Heights Dr,Cary,Harrison Pointe,27513,NC,False,35.804652,-78.780558,(919) 460-4326
cary,https://www.harristeeter.com/seo-store-files/link-hub/store-details-cities/cary-nc-grocery.json,09700494,https://www.harristeeter.com/stores/grocery/nc/cary/09700494,1273 NW Maynard Rd,Cary,Maynard Crossing,27513,NC,False,35.7854462,-78.8120607,(919) 380-9955
cary,https://www.harristeeter.com/seo-store-files/link-hub/store-details-cities/cary-nc-grocery.json,09700236,https://www.harristeeter.com/stores/grocery/nc/cary/09700236,7145 Okelly Chapel Rd,Cary,Parkside Town Commons,27519,NC,False,35.843724,-78.887769,(919) 465-9432
cary,https://www.harristeeter.com/seo-store-files/link-hub/store-details-cities/cary-nc-grocery.json,09700138,https://www.harristeeter.com/stores/grocery/nc/cary/09700138,98 Cornerstone Dr,CARY,Stone Creek Village,27519,NC,False,35.7903054,-78.8522718,(919) 467-1259
cary,https://www.harristeeter.com/seo-store-files/link-hub/store-details-cities/cary-nc-grocery.json,09700331,https://www.harristeeter.com/stores/grocery/nc/cary/09700331,3430 Ten Ten Rd,Cary,Stonebridge Village,27518,NC,False,35.7022751,-78.7920984,(919) 387-8272
cary,https://www.harristeeter.com/seo-store-files/link-hub/store-details-cities/cary-nc-grocery.json,09700330,https://www.harristeeter.com/stores/grocery/nc/cary/09700330,1151 Tryon Village Dr,CARY,Tryon Village,27518,NC,False,35.7470577,-78.7433543,(919) 233-3476
chapel-hill,https://www.harristeeter.com/seo-store-files/link-hub/store-details-cities/chapel-hill-nc-grocery.json,09700223,https://www.harristeeter.com/stores/grocery/nc/chapel-hill/09700223,1800 Martin Luther King Jr Blvd,Chapel Hill,Chapel Hill North,27514,NC,False,35.9683503,-79.0585928,(919) 968-0110
chapel-hill,https://www.harristeeter.com/seo-store-files/link-hub/store-details-cities/chapel-hill-nc-grocery.json,09700137,https://www.harristeeter.com/stores/grocery/nc/chapel-hill/09700137,88 Chatham Downs Dr,Chapel Hill,Chatham Downs,27517,NC,False,35.8309838,-79.0864031,(919) 960-0275
chapel-hill,https://www.harristeeter.com/seo-store-files/link-hub/store-details-cities/chapel-hill-nc-grocery.json,09700120,https://www.harristeeter.com/stores/grocery/nc/chapel-hill/09700120,116 W Barbee Chapel Rd,CHAPEL HILL,Meadowmont Village,27517,NC,False,35.9064668,-79.0108837,(919) 932-5020
chapel-hill,https://www.harristeeter.com/seo-store-files/link-hub/store-details-cities/chapel-hill-nc-grocery.json,09700117,https://www.harristeeter.com/stores/grocery/nc/chapel-hill/09700117,2110 S Estes Dr Ste OP-4,Chapel Hill,University Place,27514,NC,False,35.9296154,-79.0265544,(919) 933-5700
charlotte,https://www.harristeeter.com/seo-store-files/link-hub/store-details-cities/charlotte-nc-grocery.json,09700030,https://www.harristeeter.com/stores/grocery/nc/charlotte/09700030,3333 Pineville Matthews Rd,Charlotte,Arboretum,28226,NC,False,35.0962486,-80.7846129,(704) 544-3340
charlotte,https://www.harristeeter.com/seo-store-files/link-hub/store-details-cities/charlotte-nc-grocery.json,09700011,https://www.harristeeter.com/stores/grocery/nc/charlotte/09700011,15007 John J Delaney Dr,Charlotte,Ballantyne Commons East,28277,NC,False,35.0531287,-80.849012,(704) 716-2000
charlotte,https://www.harristeeter.com/seo-store-files/link-hub/store-details-cities/charlotte-nc-grocery.json,09700003,https://www.harristeeter.com/stores/grocery/nc/charlotte/09700003,4821 Berewick Town Center Dr,Charlotte,Berewick Town Center,28278,NC,False,35.1599728,-80.97268,(704) 587-1011
charlotte,https://www.harristeeter.com/seo-store-files/link-hub/store-details-cities/charlotte-nc-grocery.json,09700027,https://www.harristeeter.com/stores/grocery/nc/charlotte/09700027,9720 Rea Rd,CHARLOTTE,Blakeney,28277,NC,False,35.0363763,-80.8067898,(704) 752-1013
charlotte,https://www.harristeeter.com/seo-store-files/link-hub/store-details-cities/charlotte-nc-grocery.json,09700046,https://www.harristeeter.com/stores/grocery/nc/charlotte/09700046,9641 Brookdale Dr,Charlotte,Brookdale,28215,NC,False,35.28272,-80.669485,(704) 599-8449
charlotte,https://www.harristeeter.com/seo-store-files/link-hub/store-details-cities/charlotte-nc-grocery.json,09700401,https://www.harristeeter.com/stores/grocery/nc/charlotte/09700401,1704 Central Ave,CHARLOTTE,Central Avenue,28205,NC,False,35.2198011,-80.8100881,(704) 375-8491
charlotte,https://www.harristeeter.com/seo-store-files/link-hub/store-details-cities/charlotte-nc-grocery.json,09700220,https://www.harristeeter.com/stores/grocery/nc/charlotte/09700220,2720 W Mallard Creek Church Rd,CHARLOTTE,Cochran Commons,28262,NC,False,35.3415123,-80.764915,(704) 717-7501
charlotte,https://www.harristeeter.com/seo-store-files/link-hub/store-details-cities/charlotte-nc-grocery.json,09700004,https://www.harristeeter.com/stores/grocery/nc/charlotte/09700004,7823 Colony Rd,Charlotte,Colony Place,28226,NC,False,35.1064892,-80.8063346,(704) 341-3688
charlotte,https://www.harristeeter.com/seo-store-files/link-hub/store-details-cities/charlotte-nc-grocery.json,09700208,https://www.harristeeter.com/stores/grocery/nc/charlotte/09700208,112 S Sharon Amity Rd,Charlotte,Cotswold,28211,NC,False,35.1774346,-80.801145,(704) 366-1675
charlotte,https://www.harristeeter.com/seo-store-files/link-hub/store-details-cities/charlotte-nc-grocery.json,09700205,https://www.harristeeter.com/stores/grocery/nc/charlotte/09700205,325 W 6th St,Charlotte,Fifth and Poplar,28202,NC,False,35.2310155,-80.8439104,(704) 332-8479
charlotte,https://www.harristeeter.com/seo-store-files/link-hub/store-details-cities/charlotte-nc-grocery.json,09700122,https://www.harristeeter.com/stores/grocery/nc/charlotte/09700122,5810 Highland Shoppes Dr,Charlotte,Highland Creek,28269,NC,False,35.371535,-80.782912,(704) 875-0993
charlotte,https://www.harristeeter.com/seo-store-files/link-hub/store-details-cities/charlotte-nc-grocery.json,09700061,https://www.harristeeter.com/stores/grocery/nc/charlotte/09700061,1227 East Blvd,CHARLOTTE,Kenilworth Commons,28203,NC,False,35.2036585,-80.8447716,(704) 375-5071
charlotte,https://www.harristeeter.com/seo-store-files/link-hub/store-details-cities/charlotte-nc-grocery.json,09700174,https://www.harristeeter.com/stores/grocery/nc/charlotte/09700174,5706 Wyalong Dr,Charlotte,Mintworth Commons,28227,NC,False,35.1729346,-80.7090276,(704) 545-0229
charlotte,https://www.harristeeter.com/seo-store-files/link-hub/store-details-cities/charlotte-nc-grocery.json,09700160,https://www.harristeeter.com/stores/grocery/nc/charlotte/09700160,6701 Carnegie Blvd,Charlotte,Morrocroft Village,28211,NC,False,35.152866,-80.825797,(704) 364-1245
charlotte,https://www.harristeeter.com/seo-store-files/link-hub/store-details-cities/charlotte-nc-grocery.json,09700412,https://www.harristeeter.com/stores/grocery/nc/charlotte/09700412,1015 Providence Rd,CHARLOTTE,Myers Park Center,28207,NC,False,35.1956997,-80.8264705,(704) 338-9100
charlotte,https://www.harristeeter.com/seo-store-files/link-hub/store-details-cities/charlotte-nc-grocery.json,09700294,https://www.harristeeter.com/stores/grocery/nc/charlotte/09700294,4100 Carmel Rd,Charlotte,Olde Towne Village,28226,NC,False,35.117147,-80.8243163,(704) 542-6228
charlotte,https://www.harristeeter.com/seo-store-files/link-hub/store-details-cities/charlotte-nc-grocery.json,09700218,https://www.harristeeter.com/stores/grocery/nc/charlotte/09700218,4101 Park Rd,Charlotte,Park Road Shopping Center,28209,NC,False,35.175698,-80.850099,(704) 523-8106
charlotte,https://www.harristeeter.com/seo-store-files/link-hub/store-details-cities/charlotte-nc-grocery.json,09700035,https://www.harristeeter.com/stores/grocery/nc/charlotte/09700035,5030 Park Rd,CHARLOTTE,Park Selwyn Terrace,28209,NC,False,35.1616388,-80.8495031,(704) 525-2619
charlotte,https://www.harristeeter.com/seo-store-files/link-hub/store-details-cities/charlotte-nc-grocery.json,09700045,https://www.harristeeter.com/stores/grocery/nc/charlotte/09700045,10616 Providence Rd,CHARLOTTE,Providence Commons,28277,NC,False,35.0653192,-80.7734119,(704) 849-2776
charlotte,https://www.harristeeter.com/seo-store-files/link-hub/store-details-cities/charlotte-nc-grocery.json,09700204,https://www.harristeeter.com/stores/grocery/nc/charlotte/09700204,8538 Park Rd,CHARLOTTE,Quail Corners,28210,NC,False,35.1166484,-80.8581978,(704) 552-7212
charlotte,https://www.harristeeter.com/seo-store-files/link-hub/store-details-cities/charlotte-nc-grocery.json,09700440,https://www.harristeeter.com/stores/grocery/nc/charlotte/09700440,11135 Golf Links Dr,Charlotte,Rea Farms,28277,NC,False,35.0509901,-80.7695297,(704) 303-8601
charlotte,https://www.harristeeter.com/seo-store-files/link-hub/store-details-cities/charlotte-nc-grocery.json,09700366,https://www.harristeeter.com/stores/grocery/nc/charlotte/09700366,4701 Smith Farm Rd,Charlotte,Riverbend Village,28216,NC,False,35.3351076,-80.9338145,(704) 949-2220
charlotte,https://www.harristeeter.com/seo-store-files/link-hub/store-details-cities/charlotte-nc-grocery.json,09700171,https://www.harristeeter.com/stores/grocery/nc/charlotte/09700171,1621 Sardis Rd N,CHARLOTTE,Sardis Crossing,28270,NC,False,35.140704,-80.7386878,(704) 846-4885
charlotte,https://www.harristeeter.com/seo-store-files/link-hub/store-details-cities/charlotte-nc-grocery.json,09700305,https://www.harristeeter.com/stores/grocery/nc/charlotte/09700305,2717 South Blvd,Charlotte,Sedgefield,28209,NC,False,35.2003904,-80.8666532,(704) 527-1018
charlotte,https://www.harristeeter.com/seo-store-files/link-hub/store-details-cities/charlotte-nc-grocery.json,09700317,https://www.harristeeter.com/stores/grocery/nc/charlotte/09700317,16625 Lancaster Hwy,Charlotte,Shoppes at Ardrey Kell,28277,NC,False,35.0242671,-80.8481162,(704) 714-4795
charlotte,https://www.harristeeter.com/seo-store-files/link-hub/store-details-cities/charlotte-nc-grocery.json,09700088,https://www.harristeeter.com/stores/grocery/nc/charlotte/09700088,13000 S Tryon St,Charlotte,Steelecroft,28278,NC,False,35.1032739,-80.9909196,(704) 587-9970
charlotte,https://www.harristeeter.com/seo-store-files/link-hub/store-details-cities/charlotte-nc-grocery.json,09700066,https://www.harristeeter.com/stores/grocery/nc/charlotte/09700066,7852 Rea Rd,CHARLOTTE,Stonecrest,28277,NC,False,35.0599677,-80.8167062,(704) 341-2061
charlotte,https://www.harristeeter.com/seo-store-files/link-hub/store-details-cities/charlotte-nc-grocery.json,09700472,https://www.harristeeter.com/stores/grocery/nc/charlotte/09700472,8445 Davis Lake Pkwy,Charlotte,The Shoppes at Davis Lake,28269,NC,False,35.3341235,-80.8144065,(704) 597-7014
charlotte,https://www.harristeeter.com/seo-store-files/link-hub/store-details-cities/charlotte-nc-grocery.json,09700258,https://www.harristeeter.com/stores/grocery/nc/charlotte/09700258,8600 University City Blvd,Charlotte,Town Center Plaza,28213,NC,False,35.2962342,-80.7383467,(704) 593-1395
clayton,https://www.harristeeter.com/seo-store-files/link-hub/store-details-cities/clayton-nc-grocery.json,09700229,https://www.harristeeter.com/stores/grocery/nc/clayton/09700229,67 Flowers Crossroads Way,CLAYTON,Flowers Crossroads,27527,NC,False,35.6559362,-78.3471877,(919) 359-8023
concord,https://www.harristeeter.com/seo-store-files/link-hub/store-details-cities/concord-nc-grocery.json,09700190,https://www.harristeeter.com/stores/grocery/nc/concord/09700190,9900 Poplar Tent Rd Ste 140,CONCORD,Cannon Crossroads,28027,NC,False,35.4189694,-80.7427085,(704) 721-0735
concord,https://www.harristeeter.com/seo-store-files/link-hub/store-details-cities/concord-nc-grocery.json,09700068,https://www.harristeeter.com/stores/grocery/nc/concord/09700068,358 George W Liles Pkwy NW,Concord,Coddle Creek Market,28027,NC,False,35.412218,-80.663273,(704) 786-2510
concord,https://www.harristeeter.com/seo-store-files/link-hub/store-details-cities/concord-nc-grocery.json,09700202,https://www.harristeeter.com/stores/grocery/nc/concord/09700202,1245 (Hwy 29) Concord Pkwy N Suite 1,Concord,Shoppes at Davidson Corner,28025,NC,False,35.4327004,-80.6059238,(704) 795-9351
cornelius,https://www.harristeeter.com/seo-store-files/link-hub/store-details-cities/cornelius-nc-grocery.json,09700416,https://www.harristeeter.com/stores/grocery/nc/cornelius/09700416,21720 Catawba Ave,Cornelius,Antiquity,28031,NC,False,35.4812445,-80.856505,(704) 895-5351
cornelius,https://www.harristeeter.com/seo-store-files/link-hub/store-details-cities/cornelius-nc-grocery.json,09700179,https://www.harristeeter.com/stores/grocery/nc/cornelius/09700179,19815 North Cove Rd,CORNELIUS,Jetton Village,28031,NC,False,35.4775366,-80.8941263,(704) 895-5020
corolla,https://www.harristeeter.com/seo-store-files/link-hub/store-details-cities/corolla-nc-grocery.json,09700266,https://www.harristeeter.com/stores/grocery/nc/corolla/09700266,601 Currituck Clubhouse Dr,COROLLA,Currituck Club,27927,NC,False,36.3030868,-75.8065443,(252) 453-0153
carrboro,https://www.harristeeter.com/seo-store-files/link-hub/store-details-cities/carrboro-nc-grocery.json,09700297,https://www.harristeeter.com/stores/grocery/nc/carrboro/09700297,310 N Greensboro St,Carrboro,Carr Mill,27510,NC,False,35.912364,-79.070885,(919) 942-8564
carthage,https://www.harristeeter.com/seo-store-files/link-hub/store-details-cities/carthage-nc-grocery.json,09700212,https://www.harristeeter.com/stores/grocery/nc/carthage/09700212,400 Mill Creek Rd,Carthage,Mill Creek Village,28327,NC,False,35.2269615,-79.3958352,(910) 246-0710
cary,https://www.harristeeter.com/seo-store-files/link-hub/store-details-cities/cary-nc-grocery.json,09700298,https://www.harristeeter.com/stores/grocery/nc/cary/09700298,10140 Green Level Church Rd,Cary,Cary Park Town Center,27519,NC,False,35.8211179,-78.900703,(919) 460-3126
cary,https://www.harristeeter.com/seo-store-files/link-hub/store-details-cities/cary-nc-grocery.json,09700430,https://www.harristeeter.com/stores/grocery/nc/cary/09700430,885 Walnut St,Cary,Cary Village Square,27511,NC,False,35.7752649,-78.7647293,(919) 481-4251
cary,https://www.harristeeter.com/seo-store-files/link-hub/store-details-cities/cary-nc-grocery.json,09700257,https://www.harristeeter.com/stores/grocery/nc/cary/09700257,2080 Kildaire Farm Rd,Cary,Crescent Commons,27511,NC,False,35.735267,-78.780582,(919) 233-9483
cary,https://www.harristeeter.com/seo-store-files/link-hub/store-details-cities/cary-nc-grocery.json,09700112,https://www.harristeeter.com/stores/grocery/nc/cary/09700112,270 Grande Heights Dr,Cary,Harrison Pointe,27513,NC,False,35.804652,-78.780558,(919) 460-4326
cary,https://www.harristeeter.com/seo-store-files/link-hub/store-details-cities/cary-nc-grocery.json,09700494,https://www.harristeeter.com/stores/grocery/nc/cary/09700494,1273 NW Maynard Rd,Cary,Maynard Crossing,27513,NC,False,35.7854462,-78.8120607,(919) 380-9955
cary,https://www.harristeeter.com/seo-store-files/link-hub/store-details-cities/cary-nc-grocery.json,09700236,https://www.harristeeter.com/stores/grocery/nc/cary/09700236,7145 Okelly Chapel Rd,Cary,Parkside Town Commons,27519,NC,False,35.843724,-78.887769,(919) 465-9432
cary,https://www.harristeeter.com/seo-store-files/link-hub/store-details-cities/cary-nc-grocery.json,09700138,https://www.harristeeter.com/stores/grocery/nc/cary/09700138,98 Cornerstone Dr,CARY,Stone Creek Village,27519,NC,False,35.7903054,-78.8522718,(919) 467-1259
cary,https://www.harristeeter.com/seo-store-files/link-hub/store-details-cities/cary-nc-grocery.json,09700331,https://www.harristeeter.com/stores/grocery/nc/cary/09700331,3430 Ten Ten Rd,Cary,Stonebridge Village,27518,NC,False,35.7022751,-78.7920984,(919) 387-8272
cary,https://www.harristeeter.com/seo-store-files/link-hub/store-details-cities/cary-nc-grocery.json,09700330,https://www.harristeeter.com/stores/grocery/nc/cary/09700330,1151 Tryon Village Dr,CARY,Tryon Village,27518,NC,False,35.7470577,-78.7433543,(919) 233-3476
chapel-hill,https://www.harristeeter.com/seo-store-files/link-hub/store-details-cities/chapel-hill-nc-grocery.json,09700223,https://www.harristeeter.com/stores/grocery/nc/chapel-hill/09700223,1800 Martin Luther King Jr Blvd,Chapel Hill,Chapel Hill North,27514,NC,False,35.9683503,-79.0585928,(919) 968-0110
chapel-hill,https://www.harristeeter.com/seo-store-files/link-hub/store-details-cities/chapel-hill-nc-grocery.json,09700137,https://www.harristeeter.com/stores/grocery/nc/chapel-hill/09700137,88 Chatham Downs Dr,Chapel Hill,Chatham Downs,27517,NC,False,35.8309838,-79.0864031,(919) 960-0275
chapel-hill,https://www.harristeeter.com/seo-store-files/link-hub/store-details-cities/chapel-hill-nc-grocery.json,09700120,https://www.harristeeter.com/stores/grocery/nc/chapel-hill/09700120,116 W Barbee Chapel Rd,CHAPEL HILL,Meadowmont Village,27517,NC,False,35.9064668,-79.0108837,(919) 932-5020
chapel-hill,https://www.harristeeter.com/seo-store-files/link-hub/store-details-cities/chapel-hill-nc-grocery.json,09700117,https://www.harristeeter.com/stores/grocery/nc/chapel-hill/09700117,2110 S Estes Dr Ste OP-4,Chapel Hill,University Place,27514,NC,False,35.9296154,-79.0265544,(919) 933-5700
charlotte,https://www.harristeeter.com/seo-store-files/link-hub/store-details-cities/charlotte-nc-grocery.json,09700030,https://www.harristeeter.com/stores/grocery/nc/charlotte/09700030,3333 Pineville Matthews Rd,Charlotte,Arboretum,28226,NC,False,35.0962486,-80.7846129,(704) 544-3340
charlotte,https://www.harristeeter.com/seo-store-files/link-hub/store-details-cities/charlotte-nc-grocery.json,09700011,https://www.harristeeter.com/stores/grocery/nc/charlotte/09700011,15007 John J Delaney Dr,Charlotte,Ballantyne Commons East,28277,NC,False,35.0531287,-80.849012,(704) 716-2000
charlotte,https://www.harristeeter.com/seo-store-files/link-hub/store-details-cities/charlotte-nc-grocery.json,09700003,https://www.harristeeter.com/stores/grocery/nc/charlotte/09700003,4821 Berewick Town Center Dr,Charlotte,Berewick Town Center,28278,NC,False,35.1599728,-80.97268,(704) 587-1011
charlotte,https://www.harristeeter.com/seo-store-files/link-hub/store-details-cities/charlotte-nc-grocery.json,09700027,https://www.harristeeter.com/stores/grocery/nc/charlotte/09700027,9720 Rea Rd,CHARLOTTE,Blakeney,28277,NC,False,35.0363763,-80.8067898,(704) 752-1013
charlotte,https://www.harristeeter.com/seo-store-files/link-hub/store-details-cities/charlotte-nc-grocery.json,09700046,https://www.harristeeter.com/stores/grocery/nc/charlotte/09700046,9641 Brookdale Dr,Charlotte,Brookdale,28215,NC,False,35.28272,-80.669485,(704) 599-8449
charlotte,https://www.harristeeter.com/seo-store-files/link-hub/store-details-cities/charlotte-nc-grocery.json,09700401,https://www.harristeeter.com/stores/grocery/nc/charlotte/09700401,1704 Central Ave,CHARLOTTE,Central Avenue,28205,NC,False,35.2198011,-80.8100881,(704) 375-8491
charlotte,https://www.harristeeter.com/seo-store-files/link-hub/store-details-cities/charlotte-nc-grocery.json,09700220,https://www.harristeeter.com/stores/grocery/nc/charlotte/09700220,2720 W Mallard Creek Church Rd,CHARLOTTE,Cochran Commons,28262,NC,False,35.3415123,-80.764915,(704) 717-7501
charlotte,https://www.harristeeter.com/seo-store-files/link-hub/store-details-cities/charlotte-nc-grocery.json,09700004,https://www.harristeeter.com/stores/grocery/nc/charlotte/09700004,7823 Colony Rd,Charlotte,Colony Place,28226,NC,False,35.1064892,-80.8063346,(704) 341-3688
charlotte,https://www.harristeeter.com/seo-store-files/link-hub/store-details-cities/charlotte-nc-grocery.json,09700208,https://www.harristeeter.com/stores/grocery/nc/charlotte/09700208,112 S Sharon Amity Rd,Charlotte,Cotswold,28211,NC,False,35.1774346,-80.801145,(704) 366-1675
charlotte,https://www.harristeeter.com/seo-store-files/link-hub/store-details-cities/charlotte-nc-grocery.json,09700205,https://www.harristeeter.com/stores/grocery/nc/charlotte/09700205,325 W 6th St,Charlotte,Fifth and Poplar,28202,NC,False,35.2310155,-80.8439104,(704) 332-8479
charlotte,https://www.harristeeter.com/seo-store-files/link-hub/store-details-cities/charlotte-nc-grocery.json,09700122,https://www.harristeeter.com/stores/grocery/nc/charlotte/09700122,5810 Highland Shoppes Dr,Charlotte,Highland Creek,28269,NC,False,35.371535,-80.782912,(704) 875-0993
charlotte,https://www.harristeeter.com/seo-store-files/link-hub/store-details-cities/charlotte-nc-grocery.json,09700061,https://www.harristeeter.com/stores/grocery/nc/charlotte/09700061,1227 East Blvd,CHARLOTTE,Kenilworth Commons,28203,NC,False,35.2036585,-80.8447716,(704) 375-5071
charlotte,https://www.harristeeter.com/seo-store-files/link-hub/store-details-cities/charlotte-nc-grocery.json,09700174,https://www.harristeeter.com/stores/grocery/nc/charlotte/09700174,5706 Wyalong Dr,Charlotte,Mintworth Commons,28227,NC,False,35.1729346,-80.7090276,(704) 545-0229
charlotte,https://www.harristeeter.com/seo-store-files/link-hub/store-details-cities/charlotte-nc-grocery.json,09700160,https://www.harristeeter.com/stores/grocery/nc/charlotte/09700160,6701 Carnegie Blvd,Charlotte,Morrocroft Village,28211,NC,False,35.152866,-80.825797,(704) 364-1245
charlotte,https://www.harristeeter.com/seo-store-files/link-hub/store-details-cities/charlotte-nc-grocery.json,09700412,https://www.harristeeter.com/stores/grocery/nc/charlotte/09700412,1015 Providence Rd,CHARLOTTE,Myers Park Center,28207,NC,False,35.1956997,-80.8264705,(704) 338-9100
charlotte,https://www.harristeeter.com/seo-store-files/link-hub/store-details-cities/charlotte-nc-grocery.json,09700294,https://www.harristeeter.com/stores/grocery/nc/charlotte/09700294,4100 Carmel Rd,Charlotte,Olde Towne Village,28226,NC,False,35.117147,-80.8243163,(704) 542-6228
charlotte,https://www.harristeeter.com/seo-store-files/link-hub/store-details-cities/charlotte-nc-grocery.json,09700218,https://www.harristeeter.com/stores/grocery/nc/charlotte/09700218,4101 Park Rd,Charlotte,Park Road Shopping Center,28209,NC,False,35.175698,-80.850099,(704) 523-8106
charlotte,https://www.harristeeter.com/seo-store-files/link-hub/store-details-cities/charlotte-nc-grocery.json,09700035,https://www.harristeeter.com/stores/grocery/nc/charlotte/09700035,5030 Park Rd,CHARLOTTE,Park Selwyn Terrace,28209,NC,False,35.1616388,-80.8495031,(704) 525-2619
charlotte,https://www.harristeeter.com/seo-store-files/link-hub/store-details-cities/charlotte-nc-grocery.json,09700045,https://www.harristeeter.com/stores/grocery/nc/charlotte/09700045,10616 Providence Rd,CHARLOTTE,Providence Commons,28277,NC,False,35.0653192,-80.7734119,(704) 849-2776
charlotte,https://www.harristeeter.com/seo-store-files/link-hub/store-details-cities/charlotte-nc-grocery.json,09700204,https://www.harristeeter.com/stores/grocery/nc/charlotte/09700204,8538 Park Rd,CHARLOTTE,Quail Corners,28210,NC,False,35.1166484,-80.8581978,(704) 552-7212
charlotte,https://www.harristeeter.com/seo-store-files/link-hub/store-details-cities/charlotte-nc-grocery.json,09700440,https://www.harristeeter.com/stores/grocery/nc/charlotte/09700440,11135 Golf Links Dr,Charlotte,Rea Farms,28277,NC,False,35.0509901,-80.7695297,(704) 303-8601
charlotte,https://www.harristeeter.com/seo-store-files/link-hub/store-details-cities/charlotte-nc-grocery.json,09700366,https://www.harristeeter.com/stores/grocery/nc/charlotte/09700366,4701 Smith Farm Rd,Charlotte,Riverbend Village,28216,NC,False,35.3351076,-80.9338145,(704) 949-2220
charlotte,https://www.harristeeter.com/seo-store-files/link-hub/store-details-cities/charlotte-nc-grocery.json,09700171,https://www.harristeeter.com/stores/grocery/nc/charlotte/09700171,1621 Sardis Rd N,CHARLOTTE,Sardis Crossing,28270,NC,False,35.140704,-80.7386878,(704) 846-4885
charlotte,https://www.harristeeter.com/seo-store-files/link-hub/store-details-cities/charlotte-nc-grocery.json,09700305,https://www.harristeeter.com/stores/grocery/nc/charlotte/09700305,2717 South Blvd,Charlotte,Sedgefield,28209,NC,False,35.2003904,-80.8666532,(704) 527-1018
charlotte,https://www.harristeeter.com/seo-store-files/link-hub/store-details-cities/charlotte-nc-grocery.json,09700317,https://www.harristeeter.com/stores/grocery/nc/charlotte/09700317,16625 Lancaster Hwy,Charlotte,Shoppes at Ardrey Kell,28277,NC,False,35.0242671,-80.8481162,(704) 714-4795
charlotte,https://www.harristeeter.com/seo-store-files/link-hub/store-details-cities/charlotte-nc-grocery.json,09700088,https://www.harristeeter.com/stores/grocery/nc/charlotte/09700088,13000 S Tryon St,Charlotte,Steelecroft,28278,NC,False,35.1032739,-80.9909196,(704) 587-9970
charlotte,https://www.harristeeter.com/seo-store-files/link-hub/store-details-cities/charlotte-nc-grocery.json,09700066,https://www.harristeeter.com/stores/grocery/nc/charlotte/09700066,7852 Rea Rd,CHARLOTTE,Stonecrest,28277,NC,False,35.0599677,-80.8167062,(704) 341-2061
charlotte,https://www.harristeeter.com/seo-store-files/link-hub/store-details-cities/charlotte-nc-grocery.json,09700472,https://www.harristeeter.com/stores/grocery/nc/charlotte/09700472,8445 Davis Lake Pkwy,Charlotte,The Shoppes at Davis Lake,28269,NC,False,35.3341235,-80.8144065,(704) 597-7014
charlotte,https://www.harristeeter.com/seo-store-files/link-hub/store-details-cities/charlotte-nc-grocery.json,09700258,https://www.harristeeter.com/stores/grocery/nc/charlotte/09700258,8600 University City Blvd,Charlotte,Town Center Plaza,28213,NC,False,35.2962342,-80.7383467,(704) 593-1395
clemmons,https://www.harristeeter.com/seo-store-files/link-hub/store-details-cities/clemmons-nc-grocery.json,09700228,https://www.harristeeter.com/stores/grocery/nc/clemmons/09700228,4150 Clemmons Rd,Clemmons,Tanglewood Commons,27012,NC,False,36.0201037,-80.4072122,(336) 778-1445
concord,https://www.harristeeter.com/seo-store-files/link-hub/store-details-cities/concord-nc-grocery.json,09700190,https://www.harristeeter.com/stores/grocery/nc/concord/09700190,9900 Poplar Tent Rd Ste 140,CONCORD,Cannon Crossroads,28027,NC,False,35.4189694,-80.7427085,(704) 721-0735
concord,https://www.harristeeter.com/seo-store-files/link-hub/store-details-cities/concord-nc-grocery.json,09700068,https://www.harristeeter.com/stores/grocery/nc/concord/09700068,358 George W Liles Pkwy NW,Concord,Coddle Creek Market,28027,NC,False,35.412218,-80.663273,(704) 786-2510
concord,https://www.harristeeter.com/seo-store-files/link-hub/store-details-cities/concord-nc-grocery.json,09700202,https://www.harristeeter.com/stores/grocery/nc/concord/09700202,1245 (Hwy 29) Concord Pkwy N Suite 1,Concord,Shoppes at Davidson Corner,28025,NC,False,35.4327004,-80.6059238,(704) 795-9351
cornelius,https://www.harristeeter.com/seo-store-files/link-hub/store-details-cities/cornelius-nc-grocery.json,09700416,https://www.harristeeter.com/stores/grocery/nc/cornelius/09700416,21720 Catawba Ave,Cornelius,Antiquity,28031,NC,False,35.4812445,-80.856505,(704) 895-5351
cornelius,https://www.harristeeter.com/seo-store-files/link-hub/store-details-cities/cornelius-nc-grocery.json,09700179,https://www.harristeeter.com/stores/grocery/nc/cornelius/09700179,19815 North Cove Rd,CORNELIUS,Jetton Village,28031,NC,False,35.4775366,-80.8941263,(704) 895-5020
davidson,https://www.harristeeter.com/seo-store-files/link-hub/store-details-cities/davidson-nc-grocery.json,09700268,https://www.harristeeter.com/stores/grocery/nc/davidson/09700268,431 Peninsula Dr,DAVIDSON,Davidson Commons,28036,NC,False,35.5005211,-80.8601276,(704) 892-0597
davidson,https://www.harristeeter.com/seo-store-files/link-hub/store-details-cities/davidson-nc-grocery.json,09700471,https://www.harristeeter.com/stores/grocery/nc/davidson/09700471,11124 Renaissance Dr,DAVIDSON,Renaissance Square,28036,NC,False,35.4426289,-80.7624906,(704) 439-4042
durham,https://www.harristeeter.com/seo-store-files/link-hub/store-details-cities/durham-nc-grocery.json,09700172,https://www.harristeeter.com/stores/grocery/nc/durham/09700172,1817 Martin Luther King Pkwy,DURHAM,Commons at University Place,27707,NC,False,35.9596151,-78.9589978,(919) 489-9887
durham,https://www.harristeeter.com/seo-store-files/link-hub/store-details-cities/durham-nc-grocery.json,09700492,https://www.harristeeter.com/stores/grocery/nc/durham/09700492,3457 Hillsborough Rd,Durham,Durham Festival Center,27705,NC,False,36.018641,-78.948682,(919) 383-2249
durham,https://www.harristeeter.com/seo-store-files/link-hub/store-details-cities/durham-nc-grocery.json,09700224,https://www.harristeeter.com/stores/grocery/nc/durham/09700224,1125 W NC Highway 54,Durham,Hope Valley Commons,27707,NC,False,35.9176223,-78.9585066,(919) 403-0794
durham,https://www.harristeeter.com/seo-store-files/link-hub/store-details-cities/durham-nc-grocery.json,09700497,https://www.harristeeter.com/stores/grocery/nc/durham/09700497,1802 N Pointe Dr,Durham,North Pointe,27705,NC,False,36.029752,-78.920454,(919) 220-5761
durham,https://www.harristeeter.com/seo-store-files/link-hub/store-details-cities/durham-nc-grocery.json,09700493,https://www.harristeeter.com/stores/grocery/nc/durham/09700493,5116 N Roxboro St,Durham,Riverview,27704,NC,False,36.069227,-78.906498,(919) 471-6263
durham,https://www.harristeeter.com/seo-store-files/link-hub/store-details-cities/durham-nc-grocery.json,09700394,https://www.harristeeter.com/stores/grocery/nc/durham/09700394,2107 Hillsborough Rd,Durham,Shops at Erwin Mill,27705,NC,False,36.0095316,-78.924086,(919) 286-1500
durham,https://www.harristeeter.com/seo-store-files/link-hub/store-details-cities/durham-nc-grocery.json,09700491,https://www.harristeeter.com/stores/grocery/nc/durham/09700491,202 E NC Highway 54,Durham,Southpoint Crossing,27713,NC,False,35.9127223,-78.9365485,(919) 361-9893
durham,https://www.harristeeter.com/seo-store-files/link-hub/store-details-cities/durham-nc-grocery.json,09700254,https://www.harristeeter.com/stores/grocery/nc/durham/09700254,1501 Horton Rd,Durham,Willowhaven,27705,NC,False,36.0563491,-78.9308364,(919) 471-1938
denver,https://www.harristeeter.com/seo-store-files/link-hub/store-details-cities/denver-nc-grocery.json,09700121,https://www.harristeeter.com/stores/grocery/nc/denver/09700121,149 Cross Center Rd,Denver,Waterside,28037,NC,False,35.443485,-80.995653,(704) 820-0332
durham,https://www.harristeeter.com/seo-store-files/link-hub/store-details-cities/durham-nc-grocery.json,09700172,https://www.harristeeter.com/stores/grocery/nc/durham/09700172,1817 Martin Luther King Pkwy,DURHAM,Commons at University Place,27707,NC,False,35.9596151,-78.9589978,(919) 489-9887
durham,https://www.harristeeter.com/seo-store-files/link-hub/store-details-cities/durham-nc-grocery.json,09700492,https://www.harristeeter.com/stores/grocery/nc/durham/09700492,3457 Hillsborough Rd,Durham,Durham Festival Center,27705,NC,False,36.018641,-78.948682,(919) 383-2249
durham,https://www.harristeeter.com/seo-store-files/link-hub/store-details-cities/durham-nc-grocery.json,09700224,https://www.harristeeter.com/stores/grocery/nc/durham/09700224,1125 W NC Highway 54,Durham,Hope Valley Commons,27707,NC,False,35.9176223,-78.9585066,(919) 403-0794
durham,https://www.harristeeter.com/seo-store-files/link-hub/store-details-cities/durham-nc-grocery.json,09700497,https://www.harristeeter.com/stores/grocery/nc/durham/09700497,1802 N Pointe Dr,Durham,North Pointe,27705,NC,False,36.029752,-78.920454,(919) 220-5761
durham,https://www.harristeeter.com/seo-store-files/link-hub/store-details-cities/durham-nc-grocery.json,09700493,https://www.harristeeter.com/stores/grocery/nc/durham/09700493,5116 N Roxboro St,Durham,Riverview,27704,NC,False,36.069227,-78.906498,(919) 471-6263
durham,https://www.harristeeter.com/seo-store-files/link-hub/store-details-cities/durham-nc-grocery.json,09700394,https://www.harristeeter.com/stores/grocery/nc/durham/09700394,2107 Hillsborough Rd,Durham,Shops at Erwin Mill,27705,NC,False,36.0095316,-78.924086,(919) 286-1500
durham,https://www.harristeeter.com/seo-store-files/link-hub/store-details-cities/durham-nc-grocery.json,09700491,https://www.harristeeter.com/stores/grocery/nc/durham/09700491,202 E NC Highway 54,Durham,Southpoint Crossing,27713,NC,False,35.9127223,-78.9365485,(919) 361-9893
durham,https://www.harristeeter.com/seo-store-files/link-hub/store-details-cities/durham-nc-grocery.json,09700254,https://www.harristeeter.com/stores/grocery/nc/durham/09700254,1501 Horton Rd,Durham,Willowhaven,27705,NC,False,36.0563491,-78.9308364,(919) 471-1938
fayetteville,https://www.harristeeter.com/seo-store-files/link-hub/store-details-cities/fayetteville-nc-grocery.json,09700025,https://www.harristeeter.com/stores/grocery/nc/fayetteville/09700025,2800 Raeford Rd,FAYETTEVILLE,Highland Centre,28303,NC,False,35.047329,-78.9232269,(910) 484-6000
fayetteville,https://www.harristeeter.com/seo-store-files/link-hub/store-details-cities/fayetteville-nc-grocery.json,09700393,https://www.harristeeter.com/stores/grocery/nc/fayetteville/09700393,3050 Traemoor Village Dr,FAYETTEVILLE,Traemoor Village,28306,NC,False,34.9824429,-79.0145006,(910) 424-3505
fuquay-varina,https://www.harristeeter.com/seo-store-files/link-hub/store-details-cities/fuquay-varina-nc-grocery.json,09700498,https://www.harristeeter.com/stores/grocery/nc/fuquay-varina/09700498,1371 E Broad St,Fuquay Varina,Fuquay Crossing,27526,NC,False,35.5958103,-78.775693,(919) 567-7423
greensboro,https://www.harristeeter.com/seo-store-files/link-hub/store-details-cities/greensboro-nc-grocery.json,09700064,https://www.harristeeter.com/stores/grocery/nc/greensboro/09700064,5710 W Gate City Blvd Ste W,Greensboro,Adams Farm,27407,NC,False,36.0172388,-79.8974373,(336) 854-4050
greensboro,https://www.harristeeter.com/seo-store-files/link-hub/store-details-cities/greensboro-nc-grocery.json,09700280,https://www.harristeeter.com/stores/grocery/nc/greensboro/09700280,4010 Battleground Ave,Greensboro,Battleground North,27410,NC,False,36.1475796,-79.8667224,(336) 288-2203
greensboro,https://www.harristeeter.com/seo-store-files/link-hub/store-details-cities/greensboro-nc-grocery.json,09700342,https://www.harristeeter.com/stores/grocery/nc/greensboro/09700342,1605 New Garden Rd,Greensboro,Garden Creek Center,27410,NC,False,36.1187048,-79.8759174,(336) 855-9095
greensboro,https://www.harristeeter.com/seo-store-files/link-hub/store-details-cities/greensboro-nc-grocery.json,09700033,https://www.harristeeter.com/stores/grocery/nc/greensboro/09700033,701 Francis King St,GREENSBORO,Guilford College,27410,NC,False,36.0885565,-79.8910518,(336) 856-8140
greensboro,https://www.harristeeter.com/seo-store-files/link-hub/store-details-cities/greensboro-nc-grocery.json,09700347,https://www.harristeeter.com/stores/grocery/nc/greensboro/09700347,2639 Lawndale Dr,GREENSBORO,Lawndale Crossing,27408,NC,False,36.1033674,-79.8213949,(336) 545-1354
greensboro,https://www.harristeeter.com/seo-store-files/link-hub/store-details-cities/greensboro-nc-grocery.json,09700091,https://www.harristeeter.com/stores/grocery/nc/greensboro/09700091,401 Pisgah Church Rd,Greensboro,North Elm Village,27455,NC,False,36.130463,-79.795623,(336) 545-0236
greensboro,https://www.harristeeter.com/seo-store-files/link-hub/store-details-cities/greensboro-nc-grocery.json,09700306,https://www.harristeeter.com/stores/grocery/nc/greensboro/09700306,3330 W Friendly Ave,Greensboro,The Shops at Friendly Center,27410,NC,False,36.0881243,-79.8377251,(336) 297-1361
gastonia,https://www.harristeeter.com/seo-store-files/link-hub/store-details-cities/gastonia-nc-grocery.json,09700281,https://www.harristeeter.com/stores/grocery/nc/gastonia/09700281,3350 Robinwood Rd,Gastonia,Kendrick Crossing,28054,NC,False,35.2159074,-81.1578546,(704) 864-0139
goldsboro,https://www.harristeeter.com/seo-store-files/link-hub/store-details-cities/goldsboro-nc-grocery.json,09700115,https://www.harristeeter.com/stores/grocery/nc/goldsboro/09700115,2120 Wayne Memorial Dr,Goldsboro,Memorial Commons,27534,NC,False,35.3956653,-77.9626795,(919) 734-3534
greensboro,https://www.harristeeter.com/seo-store-files/link-hub/store-details-cities/greensboro-nc-grocery.json,09700064,https://www.harristeeter.com/stores/grocery/nc/greensboro/09700064,5710 W Gate City Blvd Ste W,Greensboro,Adams Farm,27407,NC,False,36.0172388,-79.8974373,(336) 854-4050
greensboro,https://www.harristeeter.com/seo-store-files/link-hub/store-details-cities/greensboro-nc-grocery.json,09700280,https://www.harristeeter.com/stores/grocery/nc/greensboro/09700280,4010 Battleground Ave,Greensboro,Battleground North,27410,NC,False,36.1475796,-79.8667224,(336) 288-2203
greensboro,https://www.harristeeter.com/seo-store-files/link-hub/store-details-cities/greensboro-nc-grocery.json,09700342,https://www.harristeeter.com/stores/grocery/nc/greensboro/09700342,1605 New Garden Rd,Greensboro,Garden Creek Center,27410,NC,False,36.1187048,-79.8759174,(336) 855-9095
greensboro,https://www.harristeeter.com/seo-store-files/link-hub/store-details-cities/greensboro-nc-grocery.json,09700033,https://www.harristeeter.com/stores/grocery/nc/greensboro/09700033,701 Francis King St,GREENSBORO,Guilford College,27410,NC,False,36.0885565,-79.8910518,(336) 856-8140
greensboro,https://www.harristeeter.com/seo-store-files/link-hub/store-details-cities/greensboro-nc-grocery.json,09700347,https://www.harristeeter.com/stores/grocery/nc/greensboro/09700347,2639 Lawndale Dr,GREENSBORO,Lawndale Crossing,27408,NC,False,36.1033674,-79.8213949,(336) 545-1354
greensboro,https://www.harristeeter.com/seo-store-files/link-hub/store-details-cities/greensboro-nc-grocery.json,09700091,https://www.harristeeter.com/stores/grocery/nc/greensboro/09700091,401 Pisgah Church Rd,Greensboro,North Elm Village,27455,NC,False,36.130463,-79.795623,(336) 545-0236
greensboro,https://www.harristeeter.com/seo-store-files/link-hub/store-details-cities/greensboro-nc-grocery.json,09700306,https://www.harristeeter.com/stores/grocery/nc/greensboro/09700306,3330 W Friendly Ave,Greensboro,The Shops at Friendly Center,27410,NC,False,36.0881243,-79.8377251,(336) 297-1361
greenville,https://www.harristeeter.com/seo-store-files/link-hub/store-details-cities/greenville-nc-grocery.json,09700287,https://www.harristeeter.com/stores/grocery/nc/greenville/09700287,2120 E Fire Tower Rd Ste 101,Greenville,Bells Fork Square,27858,NC,False,35.567042,-77.348596,(252) 355-0125
greenville,https://www.harristeeter.com/seo-store-files/link-hub/store-details-cities/greenville-nc-grocery.json,09700362,https://www.harristeeter.com/stores/grocery/nc/greenville/09700362,3040 Evans St,Greenville,University Commons,27834,NC,False,35.5810813,-77.3832879,(252) 353-4400
high-point,https://www.harristeeter.com/seo-store-files/link-hub/store-details-cities/high-point-nc-grocery.json,09700341,https://www.harristeeter.com/stores/grocery/nc/high-point/09700341,265 Eastchester Dr,HIGH POINT,High Point Mall,27262,NC,False,35.98464,-80.0191108,(336) 869-6317
high-point,https://www.harristeeter.com/seo-store-files/link-hub/store-details-cities/high-point-nc-grocery.json,09700173,https://www.harristeeter.com/stores/grocery/nc/high-point/09700173,1589 Skeet Club Rd Ste 140,High Point,Oak Hollow Square,27265,NC,False,36.0328995,-79.9683366,(336) 841-1144
hampstead,https://www.harristeeter.com/seo-store-files/link-hub/store-details-cities/hampstead-nc-grocery.json,09700135,https://www.harristeeter.com/stores/grocery/nc/hampstead/09700135,203 Alston Blvd,Hampstead,Surf City Crossing,28443,NC,False,34.4508682,-77.6052461,(910) 329-0711
harrisburg,https://www.harristeeter.com/seo-store-files/link-hub/store-details-cities/harrisburg-nc-grocery.json,09700092,https://www.harristeeter.com/stores/grocery/nc/harrisburg/09700092,12190 University City Blvd,Harrisburg,Caldwell Crossing,28075,NC,False,35.3153039,-80.6749817,(704) 454-9905
hendersonville,https://www.harristeeter.com/seo-store-files/link-hub/store-details-cities/hendersonville-nc-grocery.json,09700379,https://www.harristeeter.com/stores/grocery/nc/hendersonville/09700379,636 Spartanburg Hwy,Hendersonville,Southside Square,28792,NC,False,35.3090299,-82.4552222,(828) 693-6668
high-point,https://www.harristeeter.com/seo-store-files/link-hub/store-details-cities/high-point-nc-grocery.json,09700341,https://www.harristeeter.com/stores/grocery/nc/high-point/09700341,265 Eastchester Dr,HIGH POINT,High Point Mall,27262,NC,False,35.98464,-80.0191108,(336) 869-6317
high-point,https://www.harristeeter.com/seo-store-files/link-hub/store-details-cities/high-point-nc-grocery.json,09700173,https://www.harristeeter.com/stores/grocery/nc/high-point/09700173,1589 Skeet Club Rd Ste 140,High Point,Oak Hollow Square,27265,NC,False,36.0328995,-79.9683366,(336) 841-1144
holly-springs,https://www.harristeeter.com/seo-store-files/link-hub/store-details-cities/holly-springs-nc-grocery.json,09700311,https://www.harristeeter.com/stores/grocery/nc/holly-springs/09700311,324 Village Walk Dr,Holly Springs,SouthPark Village,27540,NC,False,35.6395862,-78.8391135,(919) 552-1596
holly-springs,https://www.harristeeter.com/seo-store-files/link-hub/store-details-cities/holly-springs-nc-grocery.json,09700118,https://www.harristeeter.com/stores/grocery/nc/holly-springs/09700118,5277 Sunset Lake Rd,Holly Springs,Sunset Lake Commons,27540,NC,False,35.6664199,-78.7962088,(919) 363-3059
huntersville,https://www.harristeeter.com/seo-store-files/link-hub/store-details-cities/huntersville-nc-grocery.json,09700340,https://www.harristeeter.com/stores/grocery/nc/huntersville/09700340,9759 Sam Furr Rd,Huntersville,NorthCross Shopping Center,28078,NC,False,35.4442876,-80.8616483,(704) 895-2594
huntersville,https://www.harristeeter.com/seo-store-files/link-hub/store-details-cities/huntersville-nc-grocery.json,09700272,https://www.harristeeter.com/stores/grocery/nc/huntersville/09700272,7715 Regency Park Dr,Huntersville,Regency Village,28078,NC,False,35.4436806,-80.8954495,(704) 892-1197
huntersville,https://www.harristeeter.com/seo-store-files/link-hub/store-details-cities/huntersville-nc-grocery.json,09700209,https://www.harristeeter.com/stores/grocery/nc/huntersville/09700209,9925 Rose Commons Dr,Huntersville,Rosedale,28078,NC,False,35.4091646,-80.8619882,(704) 875-9703
indian-trail,https://www.harristeeter.com/seo-store-files/link-hub/store-details-cities/indian-trail-nc-grocery.json,09700129,https://www.harristeeter.com/stores/grocery/nc/indian-trail/09700129,6610 Old Monroe Rd,Indian Trail,Sun Valley,28079,NC,False,35.047284,-80.648672,(704) 289-1156
kill-devil-hills,https://www.harristeeter.com/seo-store-files/link-hub/store-details-cities/kill-devil-hills-nc-grocery.json,09700175,https://www.harristeeter.com/stores/grocery/nc/kill-devil-hills/09700175,2012 S Croatan Hwy,KILL DEVIL HILLS,Kill Devil Hills,27948,NC,False,35.9925307,-75.6516353,(252) 449-9191
kernersville,https://www.harristeeter.com/seo-store-files/link-hub/store-details-cities/kernersville-nc-grocery.json,09700250,https://www.harristeeter.com/stores/grocery/nc/kernersville/09700250,971 S Main St,Kernersville,Kernersville Marketplace,27284,NC,False,36.1072364,-80.0947009,(336) 992-9735
kitty-hawk,https://www.harristeeter.com/seo-store-files/link-hub/store-details-cities/kitty-hawk-nc-grocery.json,09700387,https://www.harristeeter.com/stores/grocery/nc/kitty-hawk/09700387,5400 N Croatan Hwy Ste A,Kitty Hawk,Shoreside Center,27949,NC,False,36.0972627,-75.7192362,(252) 261-2220
leland,https://www.harristeeter.com/seo-store-files/link-hub/store-details-cities/leland-nc-grocery.json,09700225,https://www.harristeeter.com/stores/grocery/nc/leland/09700225,2021 Olde Regent Way,Leland,Waterford Village,28451,NC,False,34.2194657,-78.0193355,(910) 371-3944
matthews,https://www.harristeeter.com/seo-store-files/link-hub/store-details-cities/matthews-nc-grocery.json,09700273,https://www.harristeeter.com/stores/grocery/nc/matthews/09700273,1351 Chestnut Ln,Matthews,Austin Village,28104,NC,False,35.0683,-80.7005881,(704) 234-0405
matthews,https://www.harristeeter.com/seo-store-files/link-hub/store-details-cities/matthews-nc-grocery.json,09700473,https://www.harristeeter.com/stores/grocery/nc/matthews/09700473,15080 Idlewild Rd Ste P,Matthews,Idlewild Market,28104,NC,False,35.12202,-80.653666,(704) 882-2277
matthews,https://www.harristeeter.com/seo-store-files/link-hub/store-details-cities/matthews-nc-grocery.json,09700157,https://www.harristeeter.com/stores/grocery/nc/matthews/09700157,1811 Matthews Township Pkwy,MATTHEWS,Matthews Festival,28105,NC,False,35.1248853,-80.709793,(704) 846-7117
matthews,https://www.harristeeter.com/seo-store-files/link-hub/store-details-cities/matthews-nc-grocery.json,09700147,https://www.harristeeter.com/stores/grocery/nc/matthews/09700147,3100 Weddington Rd,MATTHEWS,Plantation Market,28105,NC,False,35.0827724,-80.7329901,(704) 841-1810
matthews,https://www.harristeeter.com/seo-store-files/link-hub/store-details-cities/matthews-nc-grocery.json,09700343,https://www.harristeeter.com/stores/grocery/nc/matthews/09700343,13639 Providence Rd,MATTHEWS,Weddington Corners,28104,NC,False,35.0240018,-80.7609548,(704) 847-5955
mint-hill,https://www.harristeeter.com/seo-store-files/link-hub/store-details-cities/mint-hill-nc-grocery.json,09700474,https://www.harristeeter.com/stores/grocery/nc/mint-hill/09700474,7036 Brighton Park Dr,MINT HILL,Mint Hill Pavilion,28227,NC,False,35.1726586,-80.6609305,(704) 545-3281
mooresville,https://www.harristeeter.com/seo-store-files/link-hub/store-details-cities/mooresville-nc-grocery.json,09700099,https://www.harristeeter.com/stores/grocery/nc/mooresville/09700099,134 Town Center Dr Ste H,MOORESVILLE,Morrison Plantation,28117,NC,False,35.5855777,-80.8760122,(704) 799-1066
mooresville,https://www.harristeeter.com/seo-store-files/link-hub/store-details-cities/mooresville-nc-grocery.json,09700274,https://www.harristeeter.com/stores/grocery/nc/mooresville/09700274,118 Argus Ln,Mooresville,The Village at Byers Creek,28117,NC,False,35.6031016,-80.8949897,(704) 799-2004
morrisville,https://www.harristeeter.com/seo-store-files/link-hub/store-details-cities/morrisville-nc-grocery.json,09700104,https://www.harristeeter.com/stores/grocery/nc/morrisville/09700104,4093 Davis Dr,MORRISVILLE,McCrimmon Corners,27560,NC,False,35.8352986,-78.858459,(919) 380-0354
matthews,https://www.harristeeter.com/seo-store-files/link-hub/store-details-cities/matthews-nc-grocery.json,09700273,https://www.harristeeter.com/stores/grocery/nc/matthews/09700273,1351 Chestnut Ln,Matthews,Austin Village,28104,NC,False,35.0683,-80.7005881,(704) 234-0405
matthews,https://www.harristeeter.com/seo-store-files/link-hub/store-details-cities/matthews-nc-grocery.json,09700473,https://www.harristeeter.com/stores/grocery/nc/matthews/09700473,15080 Idlewild Rd Ste P,Matthews,Idlewild Market,28104,NC,False,35.12202,-80.653666,(704) 882-2277
matthews,https://www.harristeeter.com/seo-store-files/link-hub/store-details-cities/matthews-nc-grocery.json,09700157,https://www.harristeeter.com/stores/grocery/nc/matthews/09700157,1811 Matthews Township Pkwy,MATTHEWS,Matthews Festival,28105,NC,False,35.1248853,-80.709793,(704) 846-7117
matthews,https://www.harristeeter.com/seo-store-files/link-hub/store-details-cities/matthews-nc-grocery.json,09700147,https://www.harristeeter.com/stores/grocery/nc/matthews/09700147,3100 Weddington Rd,MATTHEWS,Plantation Market,28105,NC,False,35.0827724,-80.7329901,(704) 841-1810
matthews,https://www.harristeeter.com/seo-store-files/link-hub/store-details-cities/matthews-nc-grocery.json,09700343,https://www.harristeeter.com/stores/grocery/nc/matthews/09700343,13639 Providence Rd,MATTHEWS,Weddington Corners,28104,NC,False,35.0240018,-80.7609548,(704) 847-5955
mooresville,https://www.harristeeter.com/seo-store-files/link-hub/store-details-cities/mooresville-nc-grocery.json,09700099,https://www.harristeeter.com/stores/grocery/nc/mooresville/09700099,134 Town Center Dr Ste H,MOORESVILLE,Morrison Plantation,28117,NC,False,35.5855777,-80.8760122,(704) 799-1066
mooresville,https://www.harristeeter.com/seo-store-files/link-hub/store-details-cities/mooresville-nc-grocery.json,09700274,https://www.harristeeter.com/stores/grocery/nc/mooresville/09700274,118 Argus Ln,Mooresville,The Village at Byers Creek,28117,NC,False,35.6031016,-80.8949897,(704) 799-2004
morehead-city,https://www.harristeeter.com/seo-store-files/link-hub/store-details-cities/morehead-city-nc-grocery.json,09700265,https://www.harristeeter.com/stores/grocery/nc/morehead-city/09700265,5000 US Highway 70 W Ste 100,Morehead City,Govenors Station,28557,NC,False,34.7359183,-76.7923682,(252) 240-3742
new-bern,https://www.harristeeter.com/seo-store-files/link-hub/store-details-cities/new-bern-nc-grocery.json,09700139,https://www.harristeeter.com/stores/grocery/nc/new-bern/09700139,2032 Waterscape Way,New Bern,Carolina Colours,28562,NC,False,35.033836,-77.012691,(252) 631-5226
new-bern,https://www.harristeeter.com/seo-store-files/link-hub/store-details-cities/new-bern-nc-grocery.json,09700421,https://www.harristeeter.com/stores/grocery/nc/new-bern/09700421,3565 M L King Jr Blvd,New Bern,New Bern Marketplace,28562,NC,False,35.0984303,-77.09881,(252) 497-2113
pinehurst,https://www.harristeeter.com/seo-store-files/link-hub/store-details-cities/pinehurst-nc-grocery.json,09700080,https://www.harristeeter.com/stores/grocery/nc/pinehurst/09700080,305 Ivey Ln,Pinehurst,PineCroft,28374,NC,False,35.2052779,-79.4841348,(910) 255-0104
raleigh,https://www.harristeeter.com/seo-store-files/link-hub/store-details-cities/raleigh-nc-grocery.json,09700136,https://www.harristeeter.com/stores/grocery/nc/raleigh/09700136,9600 Falls of Neuse Rd,Raleigh,Falls Pointe,27615,NC,False,35.9047877,-78.6010464,(919) 676-6614
raleigh,https://www.harristeeter.com/seo-store-files/link-hub/store-details-cities/raleigh-nc-grocery.json,09700289,https://www.harristeeter.com/stores/grocery/nc/raleigh/09700289,2603 Glenwood Ave Ste 101,RALEIGH,Glenwood Village,27608,NC,False,35.815498,-78.6603326,(919) 787-5526
raleigh,https://www.harristeeter.com/seo-store-files/link-hub/store-details-cities/raleigh-nc-grocery.json,09700283,https://www.harristeeter.com/stores/grocery/nc/raleigh/09700283,8101 Fayetteville Rd,Raleigh,Kings Grant Commons,27603,NC,False,35.663363,-78.699336,(919) 772-0241
raleigh,https://www.harristeeter.com/seo-store-files/link-hub/store-details-cities/raleigh-nc-grocery.json,09700090,https://www.harristeeter.com/stores/grocery/nc/raleigh/09700090,13210 Strickland Rd,RALEIGH,Leesville Towne Centre,27613,NC,False,35.9091942,-78.7256102,(919) 676-3534
raleigh,https://www.harristeeter.com/seo-store-files/link-hub/store-details-cities/raleigh-nc-grocery.json,09700422,https://www.harristeeter.com/stores/grocery/nc/raleigh/09700422,120 Saint Albans Dr STE 100,Raleigh,North Hills,27609,NC,False,35.8371559,-78.6387279,(919) 781-4165
raleigh,https://www.harristeeter.com/seo-store-files/link-hub/store-details-cities/raleigh-nc-grocery.json,09700344,https://www.harristeeter.com/stores/grocery/nc/raleigh/09700344,6024 Falls of Neuse Rd,Raleigh,North Ridge Shopping Center,27609,NC,False,35.8655206,-78.6182992,(919) 872-5786
raleigh,https://www.harristeeter.com/seo-store-files/link-hub/store-details-cities/raleigh-nc-grocery.json,09700069,https://www.harristeeter.com/stores/grocery/nc/raleigh/09700069,3201 Edwards Mill Rd Ste 123,Raleigh,Olde Raleigh Village,27612,NC,False,35.825719,-78.7074296,(919) 781-8776
raleigh,https://www.harristeeter.com/seo-store-files/link-hub/store-details-cities/raleigh-nc-grocery.json,09700038,https://www.harristeeter.com/stores/grocery/nc/raleigh/09700038,5563 Western Blvd Ste 6A,Raleigh,Plaza West,27606,NC,False,35.7841226,-78.720309,(919) 859-0110
raleigh,https://www.harristeeter.com/seo-store-files/link-hub/store-details-cities/raleigh-nc-grocery.json,09700026,https://www.harristeeter.com/stores/grocery/nc/raleigh/09700026,7400 Creedmoor Rd,RALEIGH,Stonehenge Market,27612,NC,False,35.887042,-78.6777303,(919) 848-1464
raleigh,https://www.harristeeter.com/seo-store-files/link-hub/store-details-cities/raleigh-nc-grocery.json,09700304,https://www.harristeeter.com/stores/grocery/nc/raleigh/09700304,4221 Corners Pkwy,Raleigh,The Corners at Brier Creek,27617,NC,False,35.91925,-78.788053,(919) 596-5399
raleigh,https://www.harristeeter.com/seo-store-files/link-hub/store-details-cities/raleigh-nc-grocery.json,09700319,https://www.harristeeter.com/stores/grocery/nc/raleigh/09700319,2051 W Millbrook Rd,Raleigh,The Pointe at Creedmoor,27612,NC,False,35.8569807,-78.6799713,(919) 787-1364
raleigh,https://www.harristeeter.com/seo-store-files/link-hub/store-details-cities/raleigh-nc-grocery.json,09700495,https://www.harristeeter.com/stores/grocery/nc/raleigh/09700495,8345 Creedmoor Rd,Raleigh,Towne North,27613,NC,False,35.900728,-78.682465,(919) 659-8221
raleigh,https://www.harristeeter.com/seo-store-files/link-hub/store-details-cities/raleigh-nc-grocery.json,09700021,https://www.harristeeter.com/stores/grocery/nc/raleigh/09700021,500 Oberlin Rd,Raleigh,Village District,27605,NC,False,35.791544,-78.661821,(919) 828-9216
raleigh,https://www.harristeeter.com/seo-store-files/link-hub/store-details-cities/raleigh-nc-grocery.json,09700367,https://www.harristeeter.com/stores/grocery/nc/raleigh/09700367,14520 John Rex Blvd,Raleigh,Wakefield Park,27614,NC,False,35.9470521,-78.5428303,(919) 554-4167
raleigh,https://www.harristeeter.com/seo-store-files/link-hub/store-details-cities/raleigh-nc-grocery.json,09700136,https://www.harristeeter.com/stores/grocery/nc/raleigh/09700136,9600 Falls of Neuse Rd,Raleigh,Falls Pointe,27615,NC,False,35.9047877,-78.6010464,(919) 676-6614
raleigh,https://www.harristeeter.com/seo-store-files/link-hub/store-details-cities/raleigh-nc-grocery.json,09700289,https://www.harristeeter.com/stores/grocery/nc/raleigh/09700289,2603 Glenwood Ave Ste 101,RALEIGH,Glenwood Village,27608,NC,False,35.815498,-78.6603326,(919) 787-5526
raleigh,https://www.harristeeter.com/seo-store-files/link-hub/store-details-cities/raleigh-nc-grocery.json,09700283,https://www.harristeeter.com/stores/grocery/nc/raleigh/09700283,8101 Fayetteville Rd,Raleigh,Kings Grant Commons,27603,NC,False,35.663363,-78.699336,(919) 772-0241
raleigh,https://www.harristeeter.com/seo-store-files/link-hub/store-details-cities/raleigh-nc-grocery.json,09700090,https://www.harristeeter.com/stores/grocery/nc/raleigh/09700090,13210 Strickland Rd,RALEIGH,Leesville Towne Centre,27613,NC,False,35.9091942,-78.7256102,(919) 676-3534
raleigh,https://www.harristeeter.com/seo-store-files/link-hub/store-details-cities/raleigh-nc-grocery.json,09700422,https://www.harristeeter.com/stores/grocery/nc/raleigh/09700422,120 Saint Albans Dr STE 100,Raleigh,North Hills,27609,NC,False,35.8371559,-78.6387279,(919) 781-4165
raleigh,https://www.harristeeter.com/seo-store-files/link-hub/store-details-cities/raleigh-nc-grocery.json,09700344,https://www.harristeeter.com/stores/grocery/nc/raleigh/09700344,6024 Falls of Neuse Rd,Raleigh,North Ridge Shopping Center,27609,NC,False,35.8655206,-78.6182992,(919) 872-5786
raleigh,https://www.harristeeter.com/seo-store-files/link-hub/store-details-cities/raleigh-nc-grocery.json,09700069,https://www.harristeeter.com/stores/grocery/nc/raleigh/09700069,3201 Edwards Mill Rd Ste 123,Raleigh,Olde Raleigh Village,27612,NC,False,35.825719,-78.7074296,(919) 781-8776
raleigh,https://www.harristeeter.com/seo-store-files/link-hub/store-details-cities/raleigh-nc-grocery.json,09700038,https://www.harristeeter.com/stores/grocery/nc/raleigh/09700038,5563 Western Blvd Ste 6A,Raleigh,Plaza West,27606,NC,False,35.7841226,-78.720309,(919) 859-0110
raleigh,https://www.harristeeter.com/seo-store-files/link-hub/store-details-cities/raleigh-nc-grocery.json,09700026,https://www.harristeeter.com/stores/grocery/nc/raleigh/09700026,7400 Creedmoor Rd,RALEIGH,Stonehenge Market,27612,NC,False,35.887042,-78.6777303,(919) 848-1464
raleigh,https://www.harristeeter.com/seo-store-files/link-hub/store-details-cities/raleigh-nc-grocery.json,09700304,https://www.harristeeter.com/stores/grocery/nc/raleigh/09700304,4221 Corners Pkwy,Raleigh,The Corners at Brier Creek,27617,NC,False,35.91925,-78.788053,(919) 596-5399
raleigh,https://www.harristeeter.com/seo-store-files/link-hub/store-details-cities/raleigh-nc-grocery.json,09700319,https://www.harristeeter.com/stores/grocery/nc/raleigh/09700319,2051 W Millbrook Rd,Raleigh,The Pointe at Creedmoor,27612,NC,False,35.8569807,-78.6799713,(919) 787-1364
raleigh,https://www.harristeeter.com/seo-store-files/link-hub/store-details-cities/raleigh-nc-grocery.json,09700495,https://www.harristeeter.com/stores/grocery/nc/raleigh/09700495,8345 Creedmoor Rd,Raleigh,Towne North,27613,NC,False,35.900728,-78.682465,(919) 659-8221
raleigh,https://www.harristeeter.com/seo-store-files/link-hub/store-details-cities/raleigh-nc-grocery.json,09700021,https://www.harristeeter.com/stores/grocery/nc/raleigh/09700021,500 Oberlin Rd,Raleigh,Village District,27605,NC,False,35.791544,-78.661821,(919) 828-9216
raleigh,https://www.harristeeter.com/seo-store-files/link-hub/store-details-cities/raleigh-nc-grocery.json,09700367,https://www.harristeeter.com/stores/grocery/nc/raleigh/09700367,14520 John Rex Blvd,Raleigh,Wakefield Park,27614,NC,False,35.9470521,-78.5428303,(919) 554-4167
rocky-mount,https://www.harristeeter.com/seo-store-files/link-hub/store-details-cities/rocky-mount-nc-grocery.json,09700063,https://www.harristeeter.com/stores/grocery/nc/rocky-mount/09700063,3679 Sunset Ave,Rocky Mount,Westridge,27801,NC,False,35.9626437,-77.8521997,(252) 937-2535
stallings,https://www.harristeeter.com/seo-store-files/link-hub/store-details-cities/stallings-nc-grocery.json,09700039,https://www.harristeeter.com/stores/grocery/nc/stallings/09700039,7800J Stevens Mill Rd,STALLINGS,Stevens Mill Crossing,28104,NC,False,35.1400158,-80.6234802,(704) 882-2749
salisbury,https://www.harristeeter.com/seo-store-files/link-hub/store-details-cities/salisbury-nc-grocery.json,09700178,https://www.harristeeter.com/stores/grocery/nc/salisbury/09700178,850 Jake Alexander Blvd W,Salisbury,Alexander Pointe,28144,NC,False,35.6681045,-80.4970447,(704) 633-1658
wake-forest,https://www.harristeeter.com/seo-store-files/link-hub/store-details-cities/wake-forest-nc-grocery.json,09700395,https://www.harristeeter.com/stores/grocery/nc/wake-forest/09700395,1432 Brogden Woods Dr,WAKE FOREST,Creedmoor Village,27587,NC,False,35.9905035,-78.6934653,(919) 870-4980
wake-forest,https://www.harristeeter.com/seo-store-files/link-hub/store-details-cities/wake-forest-nc-grocery.json,09700353,https://www.harristeeter.com/stores/grocery/nc/wake-forest/09700353,13686 Capital Blvd,WAKE FOREST,Harris Crossing,27587,NC,False,36.005386,-78.5182797,(919) 554-3608
wake-forest,https://www.harristeeter.com/seo-store-files/link-hub/store-details-cities/wake-forest-nc-grocery.json,09700043,https://www.harristeeter.com/stores/grocery/nc/wake-forest/09700043,3638 Rogers Rd,Wake Forest,Heritage Station,27587,NC,False,35.9443459,-78.5047273,(919) 562-9521
waxhaw,https://www.harristeeter.com/seo-store-files/link-hub/store-details-cities/waxhaw-nc-grocery.json,09700182,https://www.harristeeter.com/stores/grocery/nc/waxhaw/09700182,8157 Kensington Dr,WAXHAW,Cureton Town Center,28173,NC,False,34.9538547,-80.7594636,(704) 243-1238
wilmington,https://www.harristeeter.com/seo-store-files/link-hub/store-details-cities/wilmington-nc-grocery.json,09700096,https://www.harristeeter.com/stores/grocery/nc/wilmington/09700096,5920 Carolina Beach Rd,Wilmington,Beau Rivage Marketplace,28412,NC,False,34.1247729,-77.9024682,(910) 796-3091
wilmington,https://www.harristeeter.com/seo-store-files/link-hub/store-details-cities/wilmington-nc-grocery.json,09700162,https://www.harristeeter.com/stores/grocery/nc/wilmington/09700162,3501 Oleander Dr Ste 18,WILMINGTON,Hanover Center,28403,NC,False,34.2169852,-77.9027207,(910) 343-4216
wilmington,https://www.harristeeter.com/seo-store-files/link-hub/store-details-cities/wilmington-nc-grocery.json,09700441,https://www.harristeeter.com/stores/grocery/nc/wilmington/09700441,2800 S College Rd,Wilmington,Long Leaf Mall,28412,NC,False,34.1966872,-77.8905119,(910) 791-4505
wilmington,https://www.harristeeter.com/seo-store-files/link-hub/store-details-cities/wilmington-nc-grocery.json,09700301,https://www.harristeeter.com/stores/grocery/nc/wilmington/09700301,1940 Eastwood Rd,WILMINGTON,Lumina Commons,28403,NC,False,34.2209208,-77.8221637,(910) 256-2015
wilmington,https://www.harristeeter.com/seo-store-files/link-hub/store-details-cities/wilmington-nc-grocery.json,09700210,https://www.harristeeter.com/stores/grocery/nc/wilmington/09700210,6805 Parker Farm Dr Unit C10,Wilmington,Mayfaire,28405,NC,False,34.2362431,-77.8312973,(910) 256-1071
wilmington,https://www.harristeeter.com/seo-store-files/link-hub/store-details-cities/wilmington-nc-grocery.json,09700191,https://www.harristeeter.com/stores/grocery/nc/wilmington/09700191,8260 Market St,Wilmington,Oak Landing,28411,NC,False,34.2979076,-77.7901491,(910) 681-0571
wilmington,https://www.harristeeter.com/seo-store-files/link-hub/store-details-cities/wilmington-nc-grocery.json,09700264,https://www.harristeeter.com/stores/grocery/nc/wilmington/09700264,3860 Carolina Beach Rd,Wilmington,Riverlights,28412,NC,False,34.174131,-77.925584,(910) 444-0220
wilmington,https://www.harristeeter.com/seo-store-files/link-hub/store-details-cities/wilmington-nc-grocery.json,09700158,https://www.harristeeter.com/stores/grocery/nc/wilmington/09700158,820 S College Rd,Wilmington,South College Marketplace,28403,NC,False,34.2200189,-77.8858453,(910) 452-9242
winston-salem,https://www.harristeeter.com/seo-store-files/link-hub/store-details-cities/winston-salem-nc-grocery.json,09700216,https://www.harristeeter.com/stores/grocery/nc/winston-salem/09700216,2281 Cloverdale Ave,Winston Salem,Cloverdale Plaza,27103,NC,False,36.0911576,-80.2762412,(336) 777-1075
winston-salem,https://www.harristeeter.com/seo-store-files/link-hub/store-details-cities/winston-salem-nc-grocery.json,09700037,https://www.harristeeter.com/stores/grocery/nc/winston-salem/09700037,150 Grant Hill Ln,Winston Salem,Harper Hill Commons,27104,NC,False,36.0839327,-80.3469458,(336) 245-0467
winston-salem,https://www.harristeeter.com/seo-store-files/link-hub/store-details-cities/winston-salem-nc-grocery.json,09700346,https://www.harristeeter.com/stores/grocery/nc/winston-salem/09700346,2835 Reynolda Rd,Winston Salem,Pine Ridge Plaza,27106,NC,False,36.1458915,-80.2988756,(336) 761-0734
winston-salem,https://www.harristeeter.com/seo-store-files/link-hub/store-details-cities/winston-salem-nc-grocery.json,09700334,https://www.harristeeter.com/stores/grocery/nc/winston-salem/09700334,5365 Robinhood Village Dr,Winston Salem,The Village at Robinhood,27106,NC,False,36.1228478,-80.3682477,(336) 923-2441
winston-salem,https://www.harristeeter.com/seo-store-files/link-hub/store-details-cities/winston-salem-nc-grocery.json,09700155,https://www.harristeeter.com/stores/grocery/nc/winston-salem/09700155,420 S Stratford Rd # 22,Winston Salem,Thruway Center,27103,NC,False,36.0901912,-80.2857454,(336) 723-2305
winston-salem,https://www.harristeeter.com/seo-store-files/link-hub/store-details-cities/winston-salem-nc-grocery.json,09700127,https://www.harristeeter.com/stores/grocery/nc/winston-salem/09700127,1955 N Peace Haven Rd,WINSTON SALEM,Whitaker Square,27106,NC,False,36.117995,-80.3106846,(336) 760-0116
wake-forest,https://www.harristeeter.com/seo-store-files/link-hub/store-details-cities/wake-forest-nc-grocery.json,09700395,https://www.harristeeter.com/stores/grocery/nc/wake-forest/09700395,1432 Brogden Woods Dr,WAKE FOREST,Creedmoor Village,27587,NC,False,35.9905035,-78.6934653,(919) 870-4980
wake-forest,https://www.harristeeter.com/seo-store-files/link-hub/store-details-cities/wake-forest-nc-grocery.json,09700353,https://www.harristeeter.com/stores/grocery/nc/wake-forest/09700353,13686 Capital Blvd,WAKE FOREST,Harris Crossing,27587,NC,False,36.005386,-78.5182797,(919) 554-3608
wake-forest,https://www.harristeeter.com/seo-store-files/link-hub/store-details-cities/wake-forest-nc-grocery.json,09700043,https://www.harristeeter.com/stores/grocery/nc/wake-forest/09700043,3638 Rogers Rd,Wake Forest,Heritage Station,27587,NC,False,35.9443459,-78.5047273,(919) 562-9521
wesley-chapel,https://www.harristeeter.com/seo-store-files/link-hub/store-details-cities/wesley-chapel-nc-grocery.json,09700249,https://www.harristeeter.com/stores/grocery/nc/wesley-chapel/09700249,5920 Weddington Monroe Rd,Wesley Chapel,Village Commons,28104,NC,False,34.9998467,-80.6999655,(704) 843-4100
wilmington,https://www.harristeeter.com/seo-store-files/link-hub/store-details-cities/wilmington-nc-grocery.json,09700096,https://www.harristeeter.com/stores/grocery/nc/wilmington/09700096,5920 Carolina Beach Rd,Wilmington,Beau Rivage Marketplace,28412,NC,False,34.1247729,-77.9024682,(910) 796-3091
wilmington,https://www.harristeeter.com/seo-store-files/link-hub/store-details-cities/wilmington-nc-grocery.json,09700162,https://www.harristeeter.com/stores/grocery/nc/wilmington/09700162,3501 Oleander Dr Ste 18,WILMINGTON,Hanover Center,28403,NC,False,34.2169852,-77.9027207,(910) 343-4216
wilmington,https://www.harristeeter.com/seo-store-files/link-hub/store-details-cities/wilmington-nc-grocery.json,09700441,https://www.harristeeter.com/stores/grocery/nc/wilmington/09700441,2800 S College Rd,Wilmington,Long Leaf Mall,28412,NC,False,34.1966872,-77.8905119,(910) 791-4505
wilmington,https://www.harristeeter.com/seo-store-files/link-hub/store-details-cities/wilmington-nc-grocery.json,09700301,https://www.harristeeter.com/stores/grocery/nc/wilmington/09700301,1940 Eastwood Rd,WILMINGTON,Lumina Commons,28403,NC,False,34.2209208,-77.8221637,(910) 256-2015
wilmington,https://www.harristeeter.com/seo-store-files/link-hub/store-details-cities/wilmington-nc-grocery.json,09700210,https://www.harristeeter.com/stores/grocery/nc/wilmington/09700210,6805 Parker Farm Dr Unit C10,Wilmington,Mayfaire,28405,NC,False,34.2362431,-77.8312973,(910) 256-1071
wilmington,https://www.harristeeter.com/seo-store-files/link-hub/store-details-cities/wilmington-nc-grocery.json,09700191,https://www.harristeeter.com/stores/grocery/nc/wilmington/09700191,8260 Market St,Wilmington,Oak Landing,28411,NC,False,34.2979076,-77.7901491,(910) 681-0571
wilmington,https://www.harristeeter.com/seo-store-files/link-hub/store-details-cities/wilmington-nc-grocery.json,09700264,https://www.harristeeter.com/stores/grocery/nc/wilmington/09700264,3860 Carolina Beach Rd,Wilmington,Riverlights,28412,NC,False,34.174131,-77.925584,(910) 444-0220
wilmington,https://www.harristeeter.com/seo-store-files/link-hub/store-details-cities/wilmington-nc-grocery.json,09700158,https://www.harristeeter.com/stores/grocery/nc/wilmington/09700158,820 S College Rd,Wilmington,South College Marketplace,28403,NC,False,34.2200189,-77.8858453,(910) 452-9242
wilson,https://www.harristeeter.com/seo-store-files/link-hub/store-details-cities/wilson-nc-grocery.json,09700354,https://www.harristeeter.com/stores/grocery/nc/wilson/09700354,3401 Raleigh Road Pkwy W Ste 10A,Wilson,Heritage Crossing,27896,NC,False,35.740786,-77.9626742,(252) 206-0831
winston-salem,https://www.harristeeter.com/seo-store-files/link-hub/store-details-cities/winston-salem-nc-grocery.json,09700216,https://www.harristeeter.com/stores/grocery/nc/winston-salem/09700216,2281 Cloverdale Ave,Winston Salem,Cloverdale Plaza,27103,NC,False,36.0911576,-80.2762412,(336) 777-1075
winston-salem,https://www.harristeeter.com/seo-store-files/link-hub/store-details-cities/winston-salem-nc-grocery.json,09700037,https://www.harristeeter.com/stores/grocery/nc/winston-salem/09700037,150 Grant Hill Ln,Winston Salem,Harper Hill Commons,27104,NC,False,36.0839327,-80.3469458,(336) 245-0467
winston-salem,https://www.harristeeter.com/seo-store-files/link-hub/store-details-cities/winston-salem-nc-grocery.json,09700346,https://www.harristeeter.com/stores/grocery/nc/winston-salem/09700346,2835 Reynolda Rd,Winston Salem,Pine Ridge Plaza,27106,NC,False,36.1458915,-80.2988756,(336) 761-0734
winston-salem,https://www.harristeeter.com/seo-store-files/link-hub/store-details-cities/winston-salem-nc-grocery.json,09700334,https://www.harristeeter.com/stores/grocery/nc/winston-salem/09700334,5365 Robinhood Village Dr,Winston Salem,The Village at Robinhood,27106,NC,False,36.1228478,-80.3682477,(336) 923-2441
winston-salem,https://www.harristeeter.com/seo-store-files/link-hub/store-details-cities/winston-salem-nc-grocery.json,09700155,https://www.harristeeter.com/stores/grocery/nc/winston-salem/09700155,420 S Stratford Rd # 22,Winston Salem,Thruway Center,27103,NC,False,36.0901912,-80.2857454,(336) 723-2305
winston-salem,https://www.harristeeter.com/seo-store-files/link-hub/store-details-cities/winston-salem-nc-grocery.json,09700127,https://www.harristeeter.com/stores/grocery/nc/winston-salem/09700127,1955 N Peace Haven Rd,WINSTON SALEM,Whitaker Square,27106,NC,False,36.117995,-80.3106846,(336) 760-0116
